0 BREEZE-M DEB (TANK)
1 27821U 03024B   13282.36781782  .00004259  00000-0  49688-3 0  2549
2 27821 049.5906 021.8238 5041800 101.8710 336.2542 05.57917197203949
0 BREEZE-M DEB (TANK)
1 27821U 03024B   13283.26562012  .00004046  00000-0  47350-3 0  2551
2 27821 049.5905 021.0526 5041746 102.5248 339.4730 05.57926045203994
0 BREEZE-M DEB (TANK)
1 27821U 03024B   13286.31793757  .00004405  00000-0  50979-3 0  2574
2 27821 049.5912 018.4315 5041585 104.7478 350.2462 05.57956040204169
0 BREEZE-M DEB (TANK)
1 27821U 03024B   13287.38689082  .00004647  00000-0  53448-3 0  2580
2 27821 049.5917 017.5128 5041550 105.5264 337.3861 05.57965629204229
0 BREEZE-M DEB (TANK)
1 27821U 03024B   13289.54528815  .00005256  00000-0  60109-3 0  2596
2 27821 049.5920 015.6603 5041383 107.0960 352.9787 05.57993779204344
0 BREEZE-M DEB (TANK)
1 27821U 03024B   13290.43656508  .00005361  00000-0  61533-3 0  2608
2 27821 049.5921 014.8964 5041198 107.7395 343.3562 05.58003532204399
0 BREEZE-M DEB (TANK)
1 27821U 03024B   13291.70284925  .00005396  00000-0  62012-3 0  2611
2 27821 049.5925 013.8075 5041223 108.6663 007.0963 05.58014477204469
0 BREEZE-M DEB (TANK)
1 27821U 03024B   13294.19775953  .00004929  00000-0  57328-3 0  2629
2 27821 049.5931 011.6648 5041058 110.4838 339.0701 05.58045905204603
